      2.10          N: GNSS NAV DATA                        RINEX VERSION / TYPE
fic2rin                                 10/13/2024 00:59:03 PGM / RUN BY / DATE
                                                            END OF HEADER
2  24 10 12  2  0  0.0 -.339015852660D-03  .818545231596D-11  .000000000000D+00
     .360000000000D+02  .699062500000D+02  .429232164957D-08  .123888557576D+01
     .313296914101D-05  .162258112105D-01  .655464828014D-05  .515369130135D+04
     .525600000000D+06  .262632966042D-06 -.445568111609D+00 -.335276126862D-06
     .967061583757D+00  .252343750000D+03 -.111986367265D+01 -.808212236712D-08
    -.946467995620D-10  .100000000000D+01  .233500000000D+04  .000000000000D+00
     .240000000000D+01  .000000000000D+00 -.176951289177D-07  .360000000000D+02
     .518400000000D+06  .400000000000D+01
7  24 10 12  2  0  0.0 -.285194255412D-04  .352429196937D-11  .000000000000D+00
     .370000000000D+02  .500000000000D+00  .467412326742D-08 -.172077119630D+01
     .502914190292D-07  .187746731099D-01  .920705497265D-05  .515360056114D+04
     .525600000000D+06  .396743416786D-06  .278071983893D+01  .186264514923D-08
     .950653656964D+00  .187593750000D+03 -.209847415346D+01 -.775103714752D-08
     .548237121991D-09  .100000000000D+01  .233500000000D+04  .000000000000D+00
     .240000000000D+01  .000000000000D+00 -.107102096081D-07  .370000000000D+02
     .518400000000D+06  .400000000000D+01
5  24 10 12  2  0  0.0 -.189499929547D-03 -.125055521494D-11  .000000000000D+00
     .840000000000D+02 -.134687500000D+02  .437375361297D-08  .139867519337D+01
    -.907108187675D-06  .580619974062D-02  .322237610817D-05  .515368231392D+04
     .525600000000D+06  .186264514923D-07  .637991888386D+00 -.502914190292D-07
     .973370308255D+00  .327843750000D+03  .133682486026D+01 -.825605818368D-08
    -.110718897601D-10  .100000000000D+01  .233500000000D+04  .000000000000D+00
     .240000000000D+01  .000000000000D+00 -.107102096081D-07  .840000000000D+02
     .518400000000D+06  .400000000000D+01
6  24 10 12  2  0  0.0 -.321064144373D-04 -.273985278909D-10  .000000000000D+00
     .530000000000D+02  .815937500000D+02  .376158525655D-08 -.814271549313D+00
     .428780913353D-05  .311845005490D-02  .729411840439D-05  .515371436310D+04
     .525600000000D+06 -.335276126862D-07 -.344239465355D+00 -.372529029846D-07
     .989737419633D+00  .255343750000D+03 -.766627581482D+00 -.785639867911D-08
     .489306095849D-10  .100000000000D+01  .233500000000D+04  .000000000000D+00
     .240000000000D+01  .000000000000D+00  .372529029846D-08  .530000000000D+02
     .518400000000D+06  .400000000000D+01
3  24 10 12  2  0  0.0  .567391980439D-03  .118234311230D-10  .000000000000D+00
     .920000000000D+02 -.375625000000D+02  .394302138552D-08 -.230087447124D+01
    -.179745256901D-05  .569470669143D-02  .343285501003D-05  .515364791679D+04
     .525600000000D+06  .186264514923D-08  .691115397285D+00 -.502914190292D-07
     .986438188264D+00  .328000000000D+03  .116583683442D+01 -.796711757671D-08
     .892894335490D-11  .100000000000D+01  .233500000000D+04  .000000000000D+00
     .340000000000D+01  .000000000000D+00  .139698386192D-08  .920000000000D+02
     .518400000000D+06  .400000000000D+01
10 24 10 12 18  0  0.0 -.156192108989D-03 -.133013600134D-10  .000000000000D+00
     .300000000000D+02  .534375000000D+01  .419160316853D-08 -.110703712877D+01
     .439584255219D-06  .978748977650D-02  .283122062683D-05  .515368186760D+04
     .583200000000D+06  .245869159698D-06  .688106751185D+00  .150874257088D-06
     .986082121318D+00  .334000000000D+03 -.237479017147D+01 -.813355308085D-08
     .251796202608D-09  .100000000000D+01  .233500000000D+04  .000000000000D+00
     .240000000000D+01  .000000000000D+00  .232830643654D-08  .300000000000D+02
     .576000000000D+06  .400000000000D+01
8  24 10 12 18  0  0.0  .382219441235D-03  .117097442853D-10  .000000000000D+00
     .220000000000D+02  .568750000000D+01  .460519182472D-08 -.306929826743D+01
     .264495611191D-06  .976797880139D-02  .836327672005D-05  .515369603539D+04
     .583200000000D+06 -.763684511185D-07 -.144536892715D+01 -.372529029846D-07
     .950768806171D+00  .213968750000D+03  .370038802493D+00 -.802104839458D-08
    -.427874965567D-09  .100000000000D+01  .233500000000D+04  .000000000000D+00
     .240000000000D+01  .000000000000D+00  .465661287308D-08  .220000000000D+02
     .576000000000D+06  .400000000000D+01
6  24 10 12 18  0  0.0 -.336882658303D-04 -.275122147286D-10  .000000000000D+00
     .670000000000D+02  .805937500000D+02  .354157609229D-08  .130393837260D+01
     .423938035965D-05  .312089116778D-02  .822544097900D-05  .515371704483D+04
     .583200000000D+06  .158324837685D-06 -.344689584768D+00 -.223517417908D-07
     .989745856282D+00  .234843750000D+03 -.766817044002D+00 -.771567853184D-08
     .216080429189D-09  .100000000000D+01  .233500000000D+04  .000000000000D+00
     .240000000000D+01  .000000000000D+00  .372529029846D-08  .670000000000D+02
     .576000000000D+06  .400000000000D+01
3  24 10 12 18  0  0.0  .568077433854D-03  .118234311230D-10  .000000000000D+00
     .970000000000D+02 -.387500000000D+01  .419588906134D-08 -.182597487701D+00
    -.294297933578D-06  .569486978929D-02  .364705920219D-05  .515364515877D+04
     .583200000000D+06 -.745058059692D-08  .690645600161D+00  .502914190292D-07
     .986441269170D+00  .328437500000D+03  .116594257999D+01 -.819284126472D-08
     .228223792151D-09  .100000000000D+01  .233500000000D+04  .000000000000D+00
     .240000000000D+01  .000000000000D+00  .139698386192D-08  .970000000000D+02
     .576000000000D+06  .400000000000D+01
7  24 10 12 18  0  0.0 -.283163972199D-04  .352429196937D-11  .000000000000D+00
     .490000000000D+02  .203125000000D+01  .496199240119D-08  .397776662617D+00
     .322237610817D-06  .187774025835D-01  .104829668999D-04  .515360321236D+04
     .583200000000D+06 -.234693288803D-06  .278025937376D+01  .163912773132D-06
     .950668107668D+00  .175937500000D+03 -.209840471459D+01 -.843213694664D-08
     .151792037033D-09  .100000000000D+01  .233500000000D+04  .000000000000D+00
     .240000000000D+01  .000000000000D+00 -.107102096081D-07  .490000000000D+02
     .576000000000D+06  .400000000000D+01
4  24 10 12 18  0  0.0  .460476614535D-03  .682121026330D-11  .000000000000D+00
     .171000000000D+03 -.949687500000D+02  .451411660250D-08  .289458531569D+01
    -.482425093651D-05  .308600685094D-02  .805780291557D-05  .515370252609D+04
     .583200000000D+06 -.596046447754D-07  .176815544204D+01 -.204890966415D-07
     .965601257968D+00  .229250000000D+03 -.300814948399D+01 -.799711882638D-08
    -.221437795202D-10  .100000000000D+01  .233500000000D+04  .000000000000D+00
     .240000000000D+01  .000000000000D+00 -.465661287308D-08  .683000000000D+03
     .576000000000D+06  .400000000000D+01
12 24 10 12 18  0  0.0 -.544655136764D-03 -.272848410532D-11  .000000000000D+00
     .146000000000D+03  .297812500000D+02  .492734810097D-08 -.322496697648D+00
     .154785811901D-05  .875643163454D-02  .595115125179D-05  .515357434654D+04
     .583200000000D+06 -.968575477600D-07 -.238730384252D+01  .819563865662D-07
     .961662592421D+00  .265406250000D+03  .146407987029D+01 -.834749056363D-08
    -.910752222200D-10  .100000000000D+01  .233500000000D+04  .000000000000D+00
     .240000000000D+01  .000000000000D+00 -.125728547573D-07  .146000000000D+03
     .576000000000D+06  .400000000000D+01
26 24 10 12 18  0  0.0  .573983415961D-04 -.932232069317D-11  .000000000000D+00
     .220000000000D+02  .329687500000D+02  .551094383865D-08 -.122337836324D+01
     .170245766640D-05  .935584597755D-02  .566057860851D-05  .515370392227D+04
     .583200000000D+06  .197440385818D-06 -.254049887267D+01 -.651925802231D-07
     .930572748102D+00  .254375000000D+03  .563801452136D+00 -.849749681199D-08
     .350014579512D-10  .100000000000D+01  .233500000000D+04  .000000000000D+00
     .240000000000D+01  .000000000000D+00  .651925802231D-08  .220000000000D+02
     .576000000000D+06  .400000000000D+01
22 24 10 12 18  0  0.0 -.704298727214D-04 -.341060513165D-11  .000000000000D+00
     .750000000000D+02  .285312500000D+02  .470912472538D-08 -.259685793358D+01
     .148452818394D-05  .139846216189D-01  .624917447567D-05  .515368118477D+04
     .583200000000D+06  .109896063805D-06 -.236630781989D+01  .167638063431D-06
     .960401516075D+00  .259593750000D+03 -.110402558170D+01 -.787854245863D-08
    -.191436545529D-09  .100000000000D+01  .233500000000D+04  .000000000000D+00
     .240000000000D+01  .000000000000D+00 -.111758708954D-07  .750000000000D+02
     .576000000000D+06  .400000000000D+01
11 24 10 12 18  0  0.0 -.743356067687D-03 -.306954461848D-11  .000000000000D+00
     .910000000000D+02  .877812500000D+02  .408231290186D-08  .233969569571D+01
     .466592609882D-05  .169131264556D-02  .794231891632D-05  .515356517220D+04
     .583200000000D+06 -.931322574615D-08 -.314713933967D+00 -.633299350739D-07
     .966372694170D+00  .226437500000D+03 -.247308610224D+01 -.801140513575D-08
     .236795577772D-09  .100000000000D+01  .233500000000D+04  .000000000000D+00
     .240000000000D+01  .000000000000D+00 -.884756445885D-08  .910000000000D+02
     .576000000000D+06  .400000000000D+01
27 24 10 12 18  0  0.0 -.345110893250D-04 -.227373675443D-12  .000000000000D+00
     .700000000000D+02 -.321875000000D+01  .437053919336D-08 -.301748208942D+01
    -.143423676491D-06  .126844791230D-01  .859983265400D-05  .515368243408D+04
     .583200000000D+06  .931322574615D-08 -.141769202244D+01 -.819563865662D-07
     .959810339176D+00  .211812500000D+03  .797482207592D+00 -.780889670046D-08
    -.406445501515D-09  .100000000000D+01  .233500000000D+04  .000000000000D+00
     .240000000000D+01  .000000000000D+00  .186264514923D-08  .700000000000D+02
     .576000000000D+06  .400000000000D+01
